{"type": "FeatureCollection", "features": [ {"type": "Feature", "properties": {"norad_id": 35060, "name": "COSMOS 2251 DEB", "group": "cosmos-2251-debris", "lat": 39.55487345657124, "lon": -122.59643887063936, "alt_km": 750.5342998529004, "timestamp": "2025-12-23T20:42:37.471956+00:00", "meta": {"OBJECT_NAME": "COSMOS 2251 DEB", "OBJECT_ID": "1993-036AHP", "EPOCH": "2025-12-17T09:37:48.798336", "MEAN_MOTION": 14.41611034, "ECCENTRICITY": 0.00186104, "INCLINATION": 74.0362, "RA_OF_ASC_NODE": 235.6937, "ARG_OF_PERICENTER": 321.6138, "MEAN_ANOMALY": 38.3692, "EPHEMERIS_TYPE": 0, "CLASSIFICATION_TYPE": "U", "NORAD_CAT_ID": 35060, "ELEMENT_SET_NO": 999, "REV_AT_EPOCH": 87309, "BSTAR": 0.00026105938, "MEAN_MOTION_DOT": 8.25e-06, "MEAN_MOTION_DDOT": 0}, "tle": {"line1": "1 35060U 93036AHP 25351.40125924  .00000825  00000+0  26106-3 0  9990", "line2": "2 35060  74.0362 235.6937 0018610 321.6138  38.3692 14.41611034873096"}}, "geometry": {"type": "Point", "coordinates": [-122.59643887063936, 39.55487345657124]}}, {"type": "Feature", "properties": {"norad_id": 35061, "name": "COSMOS 2251 DEB", "group": "cosmos-2251-debris", "lat": -68.73724225287556, "lon": 151.5597224965807, "alt_km": 694.7553939767804, "timestamp": "2025-12-23T20:42:37.471966+00:00", "meta": {"OBJECT_NAME": "COSMOS 2251 DEB", "OBJECT_ID": "1993-036AHQ", "EPOCH": "2025-12-22T19:00:50.101056", "MEAN_MOTION": 14.67906168, "ECCENTRICITY": 0.00395999, "INCLINATION": 74.0464, "RA_OF_ASC_NODE": 286.3095, "ARG_OF_PERICENTER": 34.3497, "MEAN_ANOMALY": 326.0221, "EPHEMERIS_TYPE": 0, "CLASSIFICATION_TYPE": "U", "NORAD_CAT_ID": 35061, "ELEMENT_SET_NO": 999, "REV_AT_EPOCH": 88722, "BSTAR": 0.00074768176, "MEAN_MOTION_DOT": 4.298e-05, "MEAN_MOTION_DDOT": 0}, "tle": {"line1": "1 35061U 93036AHQ 25356.79224654  .00004298  00000+0  74768-3 0  9993", "line2": "2 35061  74.0464 286.3095 0039599  34.3497 326.0221 14.67906168887221"}}, "geometry": {"type": "Point", "coordinates": [151.5597224965807, -68.73724225287556]}}, {"type": "Feature", "properties": {"norad_id": 35062, "name": "COSMOS 2251 DEB", "group": "cosmos-2251-debris", "lat": -42.930864675970476, "lon": 57.90508307842337, "alt_km": 858.739775956692, "timestamp": "2025-12-23T20:42:37.471976+00:00", "meta": {"OBJECT_NAME": "COSMOS 2251 DEB", "OBJECT_ID": "1993-036AHR", "EPOCH": "2025-12-20T22:03:28.302048", "MEAN_MOTION": 14.22993492, "ECCENTRICITY": 0.0126453, "INCLINATION": 74.0793, "RA_OF_ASC_NODE": 78.5797, "ARG_OF_PERICENTER": 75.845, "MEAN_ANOMALY": 285.6708, "EPHEMERIS_TYPE": 0, "CLASSIFICATION_TYPE": "U", "NORAD_CAT_ID": 35062, "ELEMENT_SET_NO": 999, "REV_AT_EPOCH": 85615, "BSTAR": 0.0011493, "MEAN_MOTION_DOT": 2.786e-05, "MEAN_MOTION_DDOT": 0}, "tle": {"line1": "1 35062U 93036AHR 25354.91907757  .00002786  00000+0  11493-2 0  9993", "line2": "2 35062  74.0793  78.5797 0126453  75.8450 285.6708 14.22993492856157"}}, "geometry": {"type": "Point", "coordinates": [57.90508307842337, -42.930864675970476]}}, {"type": "Feature", "properties": {"norad_id": 35065, "name": "COSMOS 2251 DEB", "group": "cosmos-2251-debris", "lat": -13.5403443396923, "lon": -2.468390865469302, "alt_km": 746.9037701847246, "timestamp": "2025-12-23T20:42:37.471986+00:00", "meta": {"OBJECT_NAME": "COSMOS 2251 DEB", "OBJECT_ID": "1993-036AHU", "EPOCH": "2025-12-19T06:12:25.656192", "MEAN_MOTION": 14.4574331, "ECCENTRICITY": 0.0020018, "INCLINATION": 74.0185, "RA_OF_ASC_NODE": 182.1668, "ARG_OF_PERICENTER": 306.5523, "MEAN_ANOMALY": 53.3791, "EPHEMERIS_TYPE": 0, "CLASSIFICATION_TYPE": "U", "NORAD_CAT_ID": 35065, "ELEMENT_SET_NO": 999, "REV_AT_EPOCH": 68445, "BSTAR": 0.00028971, "MEAN_MOTION_DOT": 1.002e-05, "MEAN_MOTION_DDOT": 0}, "tle": {"line1": "1 35065U 93036AHU 25353.25863028  .00001002  00000+0  28971-3 0  9994", "line2": "2 35065  74.0185 182.1668 0020018 306.5523  53.3791 14.45743310684450"}}, "geometry": {"type": "Point", "coordinates": [-2.468390865469302, -13.5403443396923]}}, {"type": "Feature", "properties": {"norad_id": 35071, "name": "COSMOS 2251 DEB", "group": "cosmos-2251-debris", "lat": -26.16326646303901, "lon": -21.299077618002435, "alt_km": 606.5363651526723, "timestamp": "2025-12-23T20:42:37.471996+00:00", "meta": {"OBJECT_NAME": "COSMOS 2251 DEB", "OBJECT_ID": "1993-036AJA", "EPOCH": "2025-12-23T03:49:38.502624", "MEAN_MOTION": 15.03640344, "ECCENTRICITY": 0.00685241, "INCLINATION": 73.9316, "RA_OF_ASC_NODE": 152.0069, "ARG_OF_PERICENTER": 45.3397, "MEAN_ANOMALY": 315.3347, "EPHEMERIS_TYPE": 0, "CLASSIFICATION_TYPE": "U", "NORAD_CAT_ID": 35071, "ELEMENT_SET_NO": 999, "REV_AT_EPOCH": 67693, "BSTAR": 0.00067222607, "MEAN_MOTION_DOT": 9.658e-05, "MEAN_MOTION_DDOT": 0}, "tle": {"line1": "1 35071U 93036AJA 25357.15947341  .00009658  00000+0  67223-3 0  9993", "line2": "2 35071  73.9316 152.0069 0068524  45.3397 315.3347 15.03640344676933"}}, "geometry": {"type": "Point", "coordinates": [-21.299077618002435, -26.16326646303901]}}, {"type": "Feature", "properties": {"norad_id": 35073, "name": "COSMOS 2251 DEB", "group": "cosmos-2251-debris", "lat": -31.332150736481566, "lon": 137.9437580503673, "alt_km": 575.7549227490126, "timestamp": "2025-12-23T20:42:37.472006+00:00", "meta": {"OBJECT_NAME": "COSMOS 2251 DEB", "OBJECT_ID": "1993-036AJC", "EPOCH": "2025-12-23T03:46:29.186400", "MEAN_MOTION": 15.01345149, "ECCENTRICITY": 0.00112484, "INCLINATION": 74.0021, "RA_OF_ASC_NODE": 309.3244, "ARG_OF_PERICENTER": 51.087, "MEAN_ANOMALY": 309.1319, "EPHEMERIS_TYPE": 0, "CLASSIFICATION_TYPE": "U", "NORAD_CAT_ID": 35073, "ELEMENT_SET_NO": 999, "REV_AT_EPOCH": 67635, "BSTAR": 0.0033350796, "MEAN_MOTION_DOT": 0.00043256, "MEAN_MOTION_DDOT": 0}, "tle": {"line1": "1 35073U 93036AJC 25357.15728225  .00043256  00000+0  33351-2 0  9999", "line2": "2 35073  74.0021 309.3244 0011248  51.0870 309.1319 15.01345149676352"}}, "geometry": {"type": "Point", "coordinates": [137.9437580503673, -31.332150736481566]}}, {"type": "Feature", "properties": {"norad_id": 35284, "name": "COSMOS 2251 DEB", "group": "cosmos-2251-debris", "lat": -45.983097045431826, "lon": -133.27330106203024, "alt_km": 758.2691323655872, "timestamp": "2025-12-23T20:42:37.472016+00:00", "meta": {"OBJECT_NAME": "COSMOS 2251 DEB", "OBJECT_ID": "1993-036AJN", "EPOCH": "2025-12-22T23:19:24.555936", "MEAN_MOTION": 14.38328459, "ECCENTRICITY": 0.00171491, "INCLINATION": 74.0486, "RA_OF_ASC_NODE": 245.5844, "ARG_OF_PERICENTER": 320.5278, "MEAN_ANOMALY": 58.8111, "EPHEMERIS_TYPE": 0, "CLASSIFICATION_TYPE": "U", "NORAD_CAT_ID": 35284, "ELEMENT_SET_NO": 999, "REV_AT_EPOCH": 65673, "BSTAR": 0.00014924776, "MEAN_MOTION_DOT": 4.29e-06, "MEAN_MOTION_DDOT": 0}, "tle": {"line1": "1 35284U 93036AJN 25356.97181199  .00000429  00000+0  14925-3 0  9997", "line2": "2 35284  74.0486 245.5844 0017149 320.5278  58.8111 14.38328459656732"}}, "geometry": {"type": "Point", "coordinates": [-133.27330106203024, -45.983097045431826]}}, {"type": "Feature", "properties": {"norad_id": 35287, "name": "COSMOS 2251 DEB", "group": "cosmos-2251-debris", "lat": 47.20254270132648, "lon": -86.28759405974172, "alt_km": 759.446273166458, "timestamp": "2025-12-23T20:42:37.472027+00:00", "meta": {"OBJECT_NAME": "COSMOS 2251 DEB", "OBJECT_ID": "1993-036AJR", "EPOCH": "2025-12-23T04:28:36.192000", "MEAN_MOTION": 14.36384771, "ECCENTRICITY": 0.00180246, "INCLINATION": 74.0301, "RA_OF_ASC_NODE": 256.9396, "ARG_OF_PERICENTER": 351.3601, "MEAN_ANOMALY": 162.0144, "EPHEMERIS_TYPE": 0, "CLASSIFICATION_TYPE": "U", "NORAD_CAT_ID": 35287, "ELEMENT_SET_NO": 999, "REV_AT_EPOCH": 87042, "BSTAR": 0.00012299523, "MEAN_MOTION_DOT": 3.34e-06, "MEAN_MOTION_DDOT": 0}, "tle": {"line1": "1 35287U 93036AJR 25357.18653000  .00000334  00000+0  12300-3 0  9999", "line2": "2 35287  74.0301 256.9396 0018024 351.3601 162.0144 14.36384771870429"}}, "geometry": {"type": "Point", "coordinates": [-86.28759405974172, 47.20254270132648]}}, {"type": "Feature", "properties": {"norad_id": 35288, "name": "COSMOS 2251 DEB", "group": "cosmos-2251-debris", "lat": -67.4372939091006, "lon": -50.209908795996526, "alt_km": 668.5560388060367, "timestamp": "2025-12-23T20:42:37.472037+00:00", "meta": {"OBJECT_NAME": "COSMOS 2251 DEB", "OBJECT_ID": "1993-036AJS", "EPOCH": "2025-12-21T10:04:09.683328", "MEAN_MOTION": 14.65541798, "ECCENTRICITY": 0.00391307, "INCLINATION": 73.9498, "RA_OF_ASC_NODE": 358.3745, "ARG_OF_PERICENTER": 230.729, "MEAN_ANOMALY": 129.0405, "EPHEMERIS_TYPE": 0, "CLASSIFICATION_TYPE": "U", "NORAD_CAT_ID": 35288, "ELEMENT_SET_NO": 999, "REV_AT_EPOCH": 88005, "BSTAR": 0.00079112613, "MEAN_MOTION_DOT": 4.31e-05, "MEAN_MOTION_DDOT": 0}, "tle": {"line1": "1 35288U 93036AJS 25355.41955652  .00004310  00000+0  79113-3 0  9995", "line2": "2 35288  73.9498 358.3745 0039130 230.7290 129.0405 14.65541798880054"}}, "geometry": {"type": "Point", "coordinates": [-50.209908795996526, -67.4372939091006]}}, {"type": "Feature", "properties": {"norad_id": 35290, "name": "COSMOS 2251 DEB", "group": "cosmos-2251-debris", "lat": 73.31834964530525, "lon": 110.64826256129426, "alt_km": 620.1100616988651, "timestamp": "2025-12-23T20:42:37.472047+00:00", "meta": {"OBJECT_NAME": "COSMOS 2251 DEB", "OBJECT_ID": "1993-036AJU", "EPOCH": "2025-12-20T03:08:10.287168", "MEAN_MOTION": 14.80565596, "ECCENTRICITY": 0.00016036, "INCLINATION": 74.0049, "RA_OF_ASC_NODE": 44.8368, "ARG_OF_PERICENTER": 190.188, "MEAN_ANOMALY": 169.9265, "EPHEMERIS_TYPE": 0, "CLASSIFICATION_TYPE": "U", "NORAD_CAT_ID": 35290, "ELEMENT_SET_NO": 999, "REV_AT_EPOCH": 88067, "BSTAR": 0.0010027753, "MEAN_MOTION_DOT": 7.664e-05, "MEAN_MOTION_DDOT": 0}, "tle": {"line1": "1 35290U 93036AJU 25354.13067462  .00007664  00000+0  10028-2 0  9993", "line2": "2 35290  74.0049  44.8368 0001603 190.1880 169.9265 14.80565596880671"}}, "geometry": {"type": "Point", "coordinates": [110.64826256129426, 73.31834964530525]}}]}